[{"OBJECT_NAME":"ONEWEB-0263","OBJECT_ID":"2021-060Q","EPOCH":"2025-09-25T07:08:40.856640","MEAN_MOTION":13.16594977,"ECCENTRICITY":0.00014901,"INCLINATION":87.8963,"RA_OF_ASC_NODE":281.5772,"ARG_OF_PERICENTER":101.6444,"MEAN_ANOMALY":258.4854,"EPHEMERIS_TYPE":0,"CLASSIFICATION_TYPE":"U","NORAD_CAT_ID":48981,"ELEMENT_SET_NO":999,"REV_AT_EPOCH":20473,"BSTAR":-0.00017697516,"MEAN_MOTION_DOT":-5.5e-7,"MEAN_MOTION_DDOT":0},{"OBJECT_NAME":"ONEWEB-0264","OBJECT_ID":"2021-060R","EPOCH":"2025-09-25T08:02:16.184256","MEAN_MOTION":13.16593711,"ECCENTRICITY":0.00016276,"INCLINATION":87.896,"RA_OF_ASC_NODE":281.5743,"ARG_OF_PERICENTER":86.0816,"MEAN_ANOMALY":274.0501,"EPHEMERIS_TYPE":0,"CLASSIFICATION_TYPE":"U","NORAD_CAT_ID":48982,"ELEMENT_SET_NO":999,"REV_AT_EPOCH":20474,"BSTAR":0.00021209454,"MEAN_MOTION_DOT":9.4e-7,"MEAN_MOTION_DDOT":0},{"OBJECT_NAME":"ONEWEB-0266","OBJECT_ID":"2021-060T","EPOCH":"2025-09-25T06:43:35.540544","MEAN_MOTION":13.16596289,"ECCENTRICITY":0.00020096,"INCLINATION":87.897,"RA_OF_ASC_NODE":281.5632,"ARG_OF_PERICENTER":95.1285,"MEAN_ANOMALY":265.0075,"EPHEMERIS_TYPE":0,"CLASSIFICATION_TYPE":"U","NORAD_CAT_ID":48984,"ELEMENT_SET_NO":999,"REV_AT_EPOCH":20472,"BSTAR":0.000149493,"MEAN_MOTION_DOT":7.0e-7,"MEAN_MOTION_DDOT":0},{"OBJECT_NAME":"ONEWEB-0267","OBJECT_ID":"2021-060U","EPOCH":"2025-09-24T23:41:49.136064","MEAN_MOTION":13.16595163,"ECCENTRICITY":0.00015924,"INCLINATION":87.8967,"RA_OF_ASC_NODE":281.6246,"ARG_OF_PERICENTER":93.1305,"MEAN_ANOMALY":267.0008,"EPHEMERIS_TYPE":0,"CLASSIFICATION_TYPE":"U","NORAD_CAT_ID":48985,"ELEMENT_SET_NO":999,"REV_AT_EPOCH":20469,"BSTAR":2.0414931e-5,"MEAN_MOTION_DOT":2.1e-7,"MEAN_MOTION_DDOT":0},{"OBJECT_NAME":"ONEWEB-0268","OBJECT_ID":"2021-060V","EPOCH":"2025-09-25T00:45:37.936512","MEAN_MOTION":13.16595884,"ECCENTRICITY":0.00018003,"INCLINATION":87.8967,"RA_OF_ASC_NODE":281.6215,"ARG_OF_PERICENTER":88.6672,"MEAN_ANOMALY":271.4665,"EPHEMERIS_TYPE":0,"CLASSIFICATION_TYPE":"U","NORAD_CAT_ID":48986,"ELEMENT_SET_NO":999,"REV_AT_EPOCH":20496,"BSTAR":0.00020422134,"MEAN_MOTION_DOT":9.1e-7,"MEAN_MOTION_DDOT":0},{"OBJECT_NAME":"ONEWEB-0269","OBJECT_ID":"2021-060W","EPOCH":"2025-09-25T02:07:44.677056","MEAN_MOTION":13.16594121,"ECCENTRICITY":0.00019493,"INCLINATION":87.8958,"RA_OF_ASC_NODE":281.6395,"ARG_OF_PERICENTER":88.7097,"MEAN_ANOMALY":271.4257,"EPHEMERIS_TYPE":0,"CLASSIFICATION_TYPE":"U","NORAD_CAT_ID":48987,"ELEMENT_SET_NO":999,"REV_AT_EPOCH":20474,"BSTAR":0.00010322705,"MEAN_MOTION_DOT":5.2e-7,"MEAN_MOTION_DDOT":0},{"OBJECT_NAME":"ONEWEB-0270","OBJECT_ID":"2021-060X","EPOCH":"2025-09-25T08:01:06.523392","MEAN_MOTION":13.1659535,"ECCENTRICITY":0.00015558,"INCLINATION":87.8967,"RA_OF_ASC_NODE":281.5629,"ARG_OF_PERICENTER":103.3457,"MEAN_ANOMALY":256.7848,"EPHEMERIS_TYPE":0,"CLASSIFICATION_TYPE":"U","NORAD_CAT_ID":48988,"ELEMENT_SET_NO":999,"REV_AT_EPOCH":20481,"BSTAR":0.00023285662,"MEAN_MOTION_DOT":1.02e-6,"MEAN_MOTION_DDOT":0},{"OBJECT_NAME":"ONEWEB-0271","OBJECT_ID":"2021-060Y","EPOCH":"2025-09-25T07:42:52.135200","MEAN_MOTION":13.16595405,"ECCENTRICITY":0.00015851,"INCLINATION":87.8969,"RA_OF_ASC_NODE":281.5495,"ARG_OF_PERICENTER":94.2565,"MEAN_ANOMALY":265.8747,"EPHEMERIS_TYPE":0,"CLASSIFICATION_TYPE":"U","NORAD_CAT_ID":48989,"ELEMENT_SET_NO":999,"REV_AT_EPOCH":20481,"BSTAR":0.00021958374,"MEAN_MOTION_DOT":9.7e-7,"MEAN_MOTION_DDOT":0},{"OBJECT_NAME":"ONEWEB-0272","OBJECT_ID":"2021-060Z","EPOCH":"2025-09-25T02:46:28.476768","MEAN_MOTION":13.16592706,"ECCENTRICITY":0.0001598,"INCLINATION":87.8961,"RA_OF_ASC_NODE":281.6176,"ARG_OF_PERICENTER":87.7562,"MEAN_ANOMALY":272.3752,"EPHEMERIS_TYPE":0,"CLASSIFICATION_TYPE":"U","NORAD_CAT_ID":48990,"ELEMENT_SET_NO":999,"REV_AT_EPOCH":20473,"BSTAR":0.00021229324,"MEAN_MOTION_DOT":9.4e-7,"MEAN_MOTION_DDOT":0},{"OBJECT_NAME":"ONEWEB-0273","OBJECT_ID":"2021-060AA","EPOCH":"2025-09-25T06:57:17.610624","MEAN_MOTION":13.16594812,"ECCENTRICITY":0.00017627,"INCLINATION":87.8968,"RA_OF_ASC_NODE":281.5718,"ARG_OF_PERICENTER":96.3918,"MEAN_ANOMALY":263.7414,"EPHEMERIS_TYPE":0,"CLASSIFICATION_TYPE":"U","NORAD_CAT_ID":48991,"ELEMENT_SET_NO":999,"REV_AT_EPOCH":20473,"BSTAR":-0.00028253395,"MEAN_MOTION_DOT":-9.5e-7,"MEAN_MOTION_DDOT":0},{"OBJECT_NAME":"ONEWEB-0274","OBJECT_ID":"2021-060AB","EPOCH":"2025-09-25T02:05:27.347712","MEAN_MOTION":13.16595143,"ECCENTRICITY":0.00016981,"INCLINATION":87.8958,"RA_OF_ASC_NODE":281.6426,"ARG_OF_PERICENTER":79.7787,"MEAN_ANOMALY":280.3536,"EPHEMERIS_TYPE":0,"CLASSIFICATION_TYPE":"U","NORAD_CAT_ID":48992,"ELEMENT_SET_NO":999,"REV_AT_EPOCH":20474,"BSTAR":9.9727997e-5,"MEAN_MOTION_DOT":5.1e-7,"MEAN_MOTION_DDOT":0},{"OBJECT_NAME":"ONEWEB-0275","OBJECT_ID":"2021-060AC","EPOCH":"2025-09-25T07:17:47.920704","MEAN_MOTION":13.1659423,"ECCENTRICITY":0.00017529,"INCLINATION":87.8966,"RA_OF_ASC_NODE":281.5634,"ARG_OF_PERICENTER":89.8025,"MEAN_ANOMALY":270.3307,"EPHEMERIS_TYPE":0,"CLASSIFICATION_TYPE":"U","NORAD_CAT_ID":48993,"ELEMENT_SET_NO":999,"REV_AT_EPOCH":20470,"BSTAR":-0.00027023195,"MEAN_MOTION_DOT":-9.0e-7,"MEAN_MOTION_DDOT":0},{"OBJECT_NAME":"ONEWEB-0276","OBJECT_ID":"2021-060AD","EPOCH":"2025-09-25T02:37:21.239040","MEAN_MOTION":13.16596346,"ECCENTRICITY":0.00018445,"INCLINATION":87.897,"RA_OF_ASC_NODE":281.5999,"ARG_OF_PERICENTER":97.215,"MEAN_ANOMALY":262.9191,"EPHEMERIS_TYPE":0,"CLASSIFICATION_TYPE":"U","NORAD_CAT_ID":48994,"ELEMENT_SET_NO":999,"REV_AT_EPOCH":20469,"BSTAR":0.00030598914,"MEAN_MOTION_DOT":1.3e-6,"MEAN_MOTION_DDOT":0},{"OBJECT_NAME":"ONEWEB-0277","OBJECT_ID":"2021-060AE","EPOCH":"2025-09-25T02:55:20.877888","MEAN_MOTION":13.16641854,"ECCENTRICITY":0.00016167,"INCLINATION":87.8962,"RA_OF_ASC_NODE":281.6295,"ARG_OF_PERICENTER":88.471,"MEAN_ANOMALY":271.6606,"EPHEMERIS_TYPE":0,"CLASSIFICATION_TYPE":"U","NORAD_CAT_ID":48995,"ELEMENT_SET_NO":999,"REV_AT_EPOCH":20468,"BSTAR":0.00011728551,"MEAN_MOTION_DOT":5.8e-7,"MEAN_MOTION_DDOT":0},{"OBJECT_NAME":"ONEWEB-0278","OBJECT_ID":"2021-060AF","EPOCH":"2025-09-25T06:20:47.412096","MEAN_MOTION":13.1659286,"ECCENTRICITY":0.00020725,"INCLINATION":87.8971,"RA_OF_ASC_NODE":281.5657,"ARG_OF_PERICENTER":95.2795,"MEAN_ANOMALY":264.8572,"EPHEMERIS_TYPE":0,"CLASSIFICATION_TYPE":"U","NORAD_CAT_ID":48996,"ELEMENT_SET_NO":999,"REV_AT_EPOCH":20483,"BSTAR":0.00024535663,"MEAN_MOTION_DOT":1.07e-6,"MEAN_MOTION_DDOT":0},{"OBJECT_NAME":"ONEWEB-0279","OBJECT_ID":"2021-060AG","EPOCH":"2025-09-25T02:53:19.173120","MEAN_MOTION":13.16593673,"ECCENTRICITY":0.00015065,"INCLINATION":87.897,"RA_OF_ASC_NODE":281.5897,"ARG_OF_PERICENTER":90.2417,"MEAN_ANOMALY":269.8887,"EPHEMERIS_TYPE":0,"CLASSIFICATION_TYPE":"U","NORAD_CAT_ID":48997,"ELEMENT_SET_NO":999,"REV_AT_EPOCH":20474,"BSTAR":2.7121635e-5,"MEAN_MOTION_DOT":2.3e-7,"MEAN_MOTION_DDOT":0}]
