ONEWEB-0263             
1 48981U 21060Q   25268.29769510 -.00000055  00000+0 -17698-3 0  9996
2 48981  87.8963 281.5772 0001490 101.6444 258.4854 13.16594977204733
ONEWEB-0264             
1 48982U 21060R   25268.33490954  .00000094  00000+0  21209-3 0  9999
2 48982  87.8960 281.5743 0001627  86.0816 274.0501 13.16593711204749
ONEWEB-0266             
1 48984U 21060T   25268.28027246  .00000070  00000+0  14949-3 0  9992
2 48984  87.8970 281.5632 0002009  95.1285 265.0075 13.16596289204722
ONEWEB-0267             
1 48985U 21060U   25267.98737426  .00000021  00000+0  20415-4 0  9999
2 48985  87.8967 281.6246 0001592  93.1305 267.0008 13.16595163204692
ONEWEB-0268             
1 48986U 21060V   25268.03168908  .00000091  00000+0  20422-3 0  9994
2 48986  87.8967 281.6215 0001800  88.6672 271.4665 13.16595884204965
ONEWEB-0269             
1 48987U 21060W   25268.08871154  .00000052  00000+0  10323-3 0  9990
2 48987  87.8958 281.6395 0001949  88.7097 271.4257 13.16594121204747
ONEWEB-0270             
1 48988U 21060X   25268.33410328  .00000102  00000+0  23286-3 0  9999
2 48988  87.8967 281.5629 0001555 103.3457 256.7848 13.16595350204819
ONEWEB-0271             
1 48989U 21060Y   25268.32143675  .00000097  00000+0  21958-3 0  9994
2 48989  87.8969 281.5495 0001585  94.2565 265.8747 13.16595405204814
ONEWEB-0272             
1 48990U 21060Z   25268.11560737  .00000094  00000+0  21229-3 0  9993
2 48990  87.8961 281.6176 0001598  87.7562 272.3752 13.16592706204734
ONEWEB-0273             
1 48991U 21060AA  25268.28978716 -.00000095  00000+0 -28253-3 0  9999
2 48991  87.8968 281.5718 0001762  96.3918 263.7414 13.16594812204736
ONEWEB-0274             
1 48992U 21060AB  25268.08712208  .00000051  00000+0  99728-4 0  9996
2 48992  87.8958 281.6426 0001698  79.7787 280.3536 13.16595143204749
ONEWEB-0275             
1 48993U 21060AC  25268.30402686 -.00000090  00000+0 -27023-3 0  9991
2 48993  87.8966 281.5634 0001752  89.8025 270.3307 13.16594230204704
ONEWEB-0276             
1 48994U 21060AD  25268.10927360  .00000130  00000+0  30599-3 0  9996
2 48994  87.8970 281.5999 0001844  97.2150 262.9191 13.16596346204694
ONEWEB-0277             
1 48995U 21060AE  25268.12176942  .00000058  00000+0  11729-3 0  9994
2 48995  87.8962 281.6295 0001616  88.4710 271.6606 13.16641854204689
ONEWEB-0278             
1 48996U 21060AF  25268.26443764  .00000107  00000+0  24536-3 0  9994
2 48996  87.8971 281.5657 0002072  95.2795 264.8572 13.16592860204832
ONEWEB-0279             
1 48997U 21060AG  25268.12036080  .00000023  00000+0  27122-4 0  9991
2 48997  87.8970 281.5897 0001506  90.2417 269.8887 13.16593673204742
